[{"OBJECT_ID":"2004-031A","OBJECT_NAME":"AMAZONAS","NORAD_CAT_ID":"28393","OBJECT_TYPE":"PAYLOAD","PERIOD":"1436.129","INCLINATION":"1.1352","APOGEE":"35803.377","PERIGEE":"35771.078","ECCENTRICITY":"0.000383","MEAN_MOTION":"1.00269533","TLE_LINE1":"1 28393U 04031A   16238.36903029 -.00000273  00000-0  00000+0 0  9997","TLE_LINE2":"2 28393   1.1352  85.1641 0003830  97.2197 248.3062  1.00269533 44195","LAUNCH_DATE":"2004-08-04","LAUNCH_SITE":"TYURATAM MISSILE AND SPACE COMPLEX","OWNER":"SPAIN","ORBIT_TYPE":"Geosynchronous","OPERATIONAL_STATUS":"Operational","satInfo":{"lng":-40.97019222070046,"lat":-0.06460176454660935,"elevation":-8.641001809324994,"azimuth":355.9701922207004,"range":42628.261344405146,"height":35766.28273793248,"velocity":3.075857132310869},"x":-235,"y":-270},{"OBJECT_ID":"2004-041A","OBJECT_NAME":"AMC-15","NORAD_CAT_ID":"28446","OBJECT_TYPE":"PAYLOAD","PERIOD":"1436.098","INCLINATION":"0.0517","APOGEE":"35797.873","PERIGEE":"35775.374","ECCENTRICITY":"0.0002668","MEAN_MOTION":"1.00271688","TLE_LINE1":"1 28446U 04041A   16238.61855596 -.00000116  00000-0  00000+0 0  9996","TLE_LINE2":"2 28446   0.0517 298.5361 0002668 224.8654 288.5175  1.00271688 43462","LAUNCH_DATE":"2004-10-14","LAUNCH_SITE":"TYURATAM MISSILE AND SPACE COMPLEX","OWNER":"SOCIÉTÉ EUROPÉENNE DES SATELLITES","ORBIT_TYPE":"Geosynchronous","OPERATIONAL_STATUS":"Operational","satInfo":{"lng":-105.19130839778501,"lat":-2.042236532884788,"elevation":-10.5658425318172,"azimuth":60.19130839778501,"range":42853.175854123314,"height":35775.20385254887,"velocity":3.0755044895092807},"x":-345,"y":94},{"OBJECT_ID":"2004-048A","OBJECT_NAME":"AMC-16","NORAD_CAT_ID":"28472","OBJECT_TYPE":"PAYLOAD","PERIOD":"1436.098","INCLINATION":"0.0566","APOGEE":"35797.497","PERIGEE":"35775.740","ECCENTRICITY":"0.000258","MEAN_MOTION":"1.00271708","TLE_LINE1":"1 28472U 04048A   16238.62456866 -.00000233  00000-0  00000+0 0  9990","TLE_LINE2":"2 28472   0.0566 293.6141 0002580 239.0703 301.4653  1.00271708 42898","LAUNCH_DATE":"2004-12-17","LAUNCH_SITE":"AIR FORCE EASTERN TEST RANGE","OWNER":"SOCIÉTÉ EUROPÉENNE DES SATELLITES","ORBIT_TYPE":"Geosynchronous","OPERATIONAL_STATUS":"Operational","satInfo":{"lng":-100.97814785594258,"lat":-2.1272748265450123,"elevation":-10.646412206248211,"azimuth":55.97814785594264,"range":42872.744378537114,"height":35785.625029658746,"velocity":3.0751139121523012},"x":-351,"y":68},{"OBJECT_ID":"2005-003A","OBJECT_NAME":"NSS 10 (AMC-12)","NORAD_CAT_ID":"28526","OBJECT_TYPE":"PAYLOAD","PERIOD":"1436.045","INCLINATION":"0.0614","APOGEE":"35803.376","PERIGEE":"35767.798","ECCENTRICITY":"0.0004219","MEAN_MOTION":"1.00275387","TLE_LINE1":"1 28526U 05003A   16239.25845900 -.00000278  00000-0  00000+0 0  9992","TLE_LINE2":"2 28526   0.0614 294.2573 0004219 213.9908 242.2915  1.00275387 42404","LAUNCH_DATE":"2005-02-03","LAUNCH_SITE":"TYURATAM MISSILE AND SPACE COMPLEX","OWNER":"SOCIÉTÉ EUROPÉENNE DES SATELLITES","ORBIT_TYPE":"Geosynchronous","OPERATIONAL_STATUS":"Operational","satInfo":{"lng":-42.77061290247502,"lat":-1.0618855809756047,"elevation":-9.612204225563865,"azimuth":357.770612902475,"range":42745.007612074915,"height":35773.98356135104,"velocity":3.0752749035270863},"x":-243,"y":-263},{"OBJECT_ID":"2005-005A","OBJECT_NAME":"XTAR-EUR","NORAD_CAT_ID":"28542","OBJECT_TYPE":"PAYLOAD","PERIOD":"1436.079","INCLINATION":"0.106","APOGEE":"35796.501","PERIGEE":"35776.026","ECCENTRICITY":"0.0002428","MEAN_MOTION":"1.00272973","TLE_LINE1":"1 28542U 05005A   16237.99256961 +.00000126 +00000-0 +00000-0 0  9996","TLE_LINE2":"2 28542 000.1060 273.6947 0002428 255.2025 191.1031 01.00272973042277","LAUNCH_DATE":"2005-02-12","LAUNCH_SITE":"FRENCH GUIANA","OWNER":"UNITED STATES OF AMERICA","ORBIT_TYPE":"Geosynchronous","OPERATIONAL_STATUS":"Operational","satInfo":{"lng":75.51873736900312,"lat":2.1045418593548066,"elevation":-6.51609710971306,"azimuth":239.48126263099687,"range":42393.33926756202,"height":35769.74238587191,"velocity":3.0749563258888415},"x":346,"y":-89},{"OBJECT_ID":"2005-006A","OBJECT_NAME":"MTSAT 1R","NORAD_CAT_ID":"28622","OBJECT_TYPE":"PAYLOAD","PERIOD":"1455.816","INCLINATION":"1.1691","APOGEE":"36236.246","PERIGEE":"36107.175","ECCENTRICITY":"0.0015167","MEAN_MOTION":"0.98913546","TLE_LINE1":"1 28622U 05006A   16238.88338789 -.00000201 +00000-0 +00000-0 0  9999","TLE_LINE2":"2 28622 001.1691 083.9132 0015167 200.5497 312.8841 00.98913546008586","LAUNCH_DATE":"2005-02-26","LAUNCH_SITE":"TANEGASHIMA SPACE CENTER","OWNER":"JAPAN","ORBIT_TYPE":"Unclassified","OPERATIONAL_STATUS":"Nonoperational","satInfo":{"lng":80.49456127603054,"lat":-2.9254011981018966,"elevation":-11.34998658571366,"azimuth":234.50543872396946,"range":43319.70222663624,"height":36149.741910379526,"velocity":3.0623469341812646},"x":357,"y":-60},{"OBJECT_ID":"2005-008A","OBJECT_NAME":"XM-3","NORAD_CAT_ID":"28626","OBJECT_TYPE":"PAYLOAD","PERIOD":"1436.087","INCLINATION":"0.0028","APOGEE":"35788.766","PERIGEE":"35784.061","ECCENTRICITY":"5.58e-05","MEAN_MOTION":"1.00272437","TLE_LINE1":"1 28626U 05008A   16239.28973251 -.00000234  00000-0  00000+0 0  9994","TLE_LINE2":"2 28626   0.0028  86.0840 0000558 189.5395  78.5099  1.00272437 42145","LAUNCH_DATE":"2005-03-01","LAUNCH_SITE":"SEA LAUNCH","OWNER":"UNITED STATES OF AMERICA","ORBIT_TYPE":"Geosynchronous","OPERATIONAL_STATUS":"Operational","satInfo":{"lng":-100.4248474922594,"lat":1.9903256604822752,"elevation":-6.622880113473665,"azimuth":55.424847492259374,"range":42432.10457185296,"height":35796.22697420898,"velocity":3.074336578016926},"x":-352,"y":65},{"OBJECT_ID":"2005-008B","OBJECT_NAME":"BLOCK DM-SL R/B","NORAD_CAT_ID":"28627","OBJECT_TYPE":"ROCKET BODY","PERIOD":"673.283","INCLINATION":"0.5422","APOGEE":"35748.833","PERIGEE":"2387.589","ECCENTRICITY":"0.6555213","MEAN_MOTION":"2.13877262","TLE_LINE1":"1 28627U 05008B   16238.82167168 -.00000099  00000-0  00000+0 0  9995","TLE_LINE2":"2 28627   0.5422 307.7027 6555213 150.2171 136.8455  2.13877262 89782","LAUNCH_DATE":"2005-03-01","LAUNCH_SITE":"SEA LAUNCH","OWNER":"SEA LAUNCH DEMO","ORBIT_TYPE":"Highly Elliptical Orbit","OPERATIONAL_STATUS":"N/A, derelict rocket body","satInfo":{"lng":-64.36523187943615,"lat":-0.8493288875401361,"elevation":-11.613153135316546,"azimuth":19.36523187943613,"range":34031.66874088074,"height":26960.529741984108,"velocity":2.87192324307007},"x":-243,"y":-117},{"OBJECT_ID":"2005-010A","OBJECT_NAME":"EXPRESS AM-2","NORAD_CAT_ID":"28629","OBJECT_TYPE":"PAYLOAD","PERIOD":"1436.095","INCLINATION":"1.7289","APOGEE":"35792.126","PERIGEE":"35781.003","ECCENTRICITY":"0.0001319","MEAN_MOTION":"1.002719","TLE_LINE1":"1 28629U 05010A   16238.87155390 -.00000165 +00000-0 +00000-0 0  9994","TLE_LINE2":"2 28629 001.7289 080.6542 0001319 119.7718 167.9079 01.00271900005069","LAUNCH_DATE":"2005-03-29","LAUNCH_SITE":"TYURATAM MISSILE AND SPACE COMPLEX","OWNER":"COMMONWEALTH OF INDEPENDENT STATES","ORBIT_TYPE":"Geosynchronous","OPERATIONAL_STATUS":"Operational","satInfo":{"lng":70.71999861668128,"lat":-3.5586864945040126,"elevation":-12.033871219618627,"azimuth":244.28000138331873,"range":43032.799060048936,"height":35790.22491872846,"velocity":3.0743917169838175},"x":338,"y":-118},{"OBJECT_ID":"2005-012A","OBJECT_NAME":"APSTAR 6","NORAD_CAT_ID":"28638","OBJECT_TYPE":"PAYLOAD","PERIOD":"1436.145","INCLINATION":"0.0349","APOGEE":"35797.101","PERIGEE":"35778.000","ECCENTRICITY":"0.0002265","MEAN_MOTION":"1.00268382","TLE_LINE1":"1 28638U 05012A   16238.85226260 -.00000346 +00000-0 +00000-0 0  9990","TLE_LINE2":"2 28638 000.0349 095.7628 0002265 064.8842 254.6691 01.00268382066497","LAUNCH_DATE":"2005-04-12","LAUNCH_SITE":"Xichang Space Center, China","OWNER":"PEOPLES REPUBLIC OF CHINA","ORBIT_TYPE":"Geosynchronous","OPERATIONAL_STATUS":"Operational","satInfo":{"lng":132.83133299270332,"lat":-0.6478784001124722,"elevation":-9.204412773317424,"azimuth":182.16866700729668,"range":42720.86624981866,"height":35795.34661255995,"velocity":3.074210253832961},"x":263,"y":243},{"OBJECT_ID":"2005-015A","OBJECT_NAME":"SPACEWAY 1","NORAD_CAT_ID":"28644","OBJECT_TYPE":"PAYLOAD","PERIOD":"1436.090","INCLINATION":"0.0406","APOGEE":"35788.012","PERIGEE":"35784.925","ECCENTRICITY":"3.66e-05","MEAN_MOTION":"1.00272241","TLE_LINE1":"1 28644U 05015A   16239.23643895 -.00000131  00000-0  00000+0 0  9991","TLE_LINE2":"2 28644   0.0406 291.3787 0000366 309.9846  75.7341  1.00272241 41592","LAUNCH_DATE":"2005-04-26","LAUNCH_SITE":"SEA LAUNCH","OWNER":"UNITED STATES OF AMERICA","ORBIT_TYPE":"Geosynchronous","OPERATIONAL_STATUS":"Operational","satInfo":{"lng":-104.8432094027004,"lat":-2.1733560612834344,"elevation":-10.690928634675624,"azimuth":59.843209402700396,"range":42879.03618898382,"height":35786.91293519331,"velocity":3.074691786007515},"x":-346,"y":92},{"OBJECT_ID":"2005-015B","OBJECT_NAME":"BLOCK DM-SL R/B","NORAD_CAT_ID":"28645","OBJECT_TYPE":"ROCKET BODY","PERIOD":"498.482","INCLINATION":"0.3129","APOGEE":"28648.866","PERIGEE":"245.652","ECCENTRICITY":"0.681937","MEAN_MOTION":"2.88876962","TLE_LINE1":"1 28645U 05015B   16239.27580950  .00002873  00000-0  54369-3 0  9993","TLE_LINE2":"2 28645   0.3129 301.7125 6819370 162.0994 335.1946  2.88876962108451","LAUNCH_DATE":"2005-04-26","LAUNCH_SITE":"SEA LAUNCH","OWNER":"SEA LAUNCH DEMO","ORBIT_TYPE":"Highly Elliptical Orbit","OPERATIONAL_STATUS":"N/A, derelict rocket body","satInfo":{"lng":-123.43692561432619,"lat":1.1525783670218523,"elevation":-11.212617113722501,"azimuth":78.43692561432617,"range":29684.483453110308,"height":22745.62354376258,"velocity":2.8133839298572214},"x":-190,"y":125}]